[{"OBJECT_NAME":"STARLINK-34578","OBJECT_ID":"2025-152Q","EPOCH":"2026-03-09T13:33:55.179072","MEAN_MOTION":15.05648965,"ECCENTRICITY":0.0001825,"INCLINATION":97.6015,"RA_OF_ASC_NODE":285.4697,"ARG_OF_PERICENTER":80.514,"MEAN_ANOMALY":279.6292,"EPHEMERIS_TYPE":0,"CLASSIFICATION_TYPE":"U","NORAD_CAT_ID":64856,"ELEMENT_SET_NO":999,"REV_AT_EPOCH":3540,"BSTAR":0.00029715,"MEAN_MOTION_DOT":4.229e-5,"MEAN_MOTION_DDOT":0},{"OBJECT_NAME":"COSMOS 2251 DEB","OBJECT_ID":"1993-036HX","EPOCH":"2026-03-09T21:31:03.673056","MEAN_MOTION":15.04193551,"ECCENTRICITY":0.00046843,"INCLINATION":74.0171,"RA_OF_ASC_NODE":332.1487,"ARG_OF_PERICENTER":332.3762,"MEAN_ANOMALY":27.7177,"EPHEMERIS_TYPE":0,"CLASSIFICATION_TYPE":"U","NORAD_CAT_ID":34036,"ELEMENT_SET_NO":999,"REV_AT_EPOCH":89876,"BSTAR":0.0040391987,"MEAN_MOTION_DOT":0.00056541,"MEAN_MOTION_DDOT":0}]
